start=new Date('2023-04-27T00:00:00.000Z').valueOf();
sats=[{"PERIAPSIS":"546.211","SITE":"AFETR","LAUNCH_DATE":"2021-02-16","TIME_SYSTEM":"UTC","ELEMENT_SET_NO":"999","MEAN_ELEMENT_THEORY":"SGP4","SEMIMAJOR_AXIS":"6925.467","DECAY_DATE":null,"ARG_OF_PERICENTER":"82.3588","CLASSIFICATION_TYPE":"U","CENTER_NAME":"EARTH","COUNTRY_CODE":"US","PERIOD":"95.595","REF_FRAME":"TEME","MEAN_MOTION_DOT":"0.00008370","EPOCH":"2023-04-26T15:29:24.523008","MEAN_MOTION":"15.06361205","MEAN_ANOMALY":"277.7585","OBJECT_ID":"2021-012BK","RA_OF_ASC_NODE":"96.4581","TLE_LINE2":"2 47677  53.0542  96.4581 0001619  82.3588 277.7585 15.06361205122012","INCLINATION":"53.0542","MEAN_MOTION_DDOT":"0.0000000000000","RCS_SIZE":"LARGE","GP_ID":"230798173","BSTAR":"0.00058075000000","EPHEMERIS_TYPE":"0","ECCENTRICITY":"0.00016190","APOAPSIS":"548.454","FILE":"3894261","OBJECT_TYPE":"PAYLOAD","TLE_LINE1":"1 47677U 21012BK  23116.64542272  .00008370  00000-0  58075-3 0  9998","OBJECT_NAME":"STARLINK-2090","NORAD_CAT_ID":"47677","REV_AT_EPOCH":"12201"},{"FILE":"3894261","OBJECT_TYPE":"PAYLOAD","EPHEMERIS_TYPE":"0","ECCENTRICITY":"0.00014530","APOAPSIS":"548.208","OBJECT_NAME":"STARLINK-2095","TLE_LINE1":"1 47679U 21012BM  23116.67484840 -.00003949  00000-0 -24631-3 0  9999","NORAD_CAT_ID":"47679","REV_AT_EPOCH":"12203","TLE_LINE2":"2 47679  53.0542  96.3359 0001453  86.1179 273.9977 15.06403813122037","INCLINATION":"53.0542","RA_OF_ASC_NODE":"96.3359","RCS_SIZE":"LARGE","GP_ID":"230798425","MEAN_MOTION_DDOT":"0.0000000000000","BSTAR":"-0.00024631000000","COUNTRY_CODE":"US","PERIOD":"95.592","CENTER_NAME":"EARTH","REF_FRAME":"TEME","MEAN_MOTION_DOT":"-0.00003949","MEAN_MOTION":"15.06403813","MEAN_ANOMALY":"273.9977","EPOCH":"2023-04-26T16:11:46.901760","OBJECT_ID":"2021-012BM","LAUNCH_DATE":"2021-02-16","PERIAPSIS":"546.196","SITE":"AFETR","TIME_SYSTEM":"UTC","MEAN_ELEMENT_THEORY":"SGP4","ELEMENT_SET_NO":"999","CLASSIFICATION_TYPE":"U","SEMIMAJOR_AXIS":"6925.337","DECAY_DATE":null,"ARG_OF_PERICENTER":"86.1179"},{"RA_OF_ASC_NODE":"222.2814","INCLINATION":"53.0535","TLE_LINE2":"2 47722  53.0535 222.2814 0001875  98.5144 261.6057 15.06400241120001","BSTAR":"0.00286820000000","MEAN_MOTION_DDOT":"0.0000000000000","GP_ID":"230771671","RCS_SIZE":"LARGE","TLE_LINE1":"1 47722U 21017A   23116.51878157  .00042701  00000-0  28682-2 0  9990","OBJECT_NAME":"STARLINK-2068","APOAPSIS":"548.511","ECCENTRICITY":"0.00018750","EPHEMERIS_TYPE":"0","OBJECT_TYPE":"PAYLOAD","FILE":"3894260","REV_AT_EPOCH":"12000","NORAD_CAT_ID":"47722","TIME_SYSTEM":"UTC","SITE":"AFETR","PERIAPSIS":"545.914","LAUNCH_DATE":"2021-03-04","DECAY_DATE":null,"ARG_OF_PERICENTER":"98.5144","SEMIMAJOR_AXIS":"6925.348","CLASSIFICATION_TYPE":"U","ELEMENT_SET_NO":"999","MEAN_ELEMENT_THEORY":"SGP4","MEAN_MOTION_DOT":"0.00042701","REF_FRAME":"TEME","CENTER_NAME":"EARTH","PERIOD":"95.592","COUNTRY_CODE":"US","OBJECT_ID":"2021-017A","EPOCH":"2023-04-26T12:27:02.727648","MEAN_ANOMALY":"261.6057","MEAN_MOTION":"15.06400241"},{"SITE":"AFETR","PERIAPSIS":"546.010","LAUNCH_DATE":"2021-03-04","TIME_SYSTEM":"UTC","ELEMENT_SET_NO":"999","MEAN_ELEMENT_THEORY":"SGP4","ARG_OF_PERICENTER":"105.3676","DECAY_DATE":null,"SEMIMAJOR_AXIS":"6925.387","CLASSIFICATION_TYPE":"U","CENTER_NAME":"EARTH","COUNTRY_CODE":"US","PERIOD":"95.593","MEAN_MOTION_DOT":"0.00027120","REF_FRAME":"TEME","EPOCH":"2023-04-26T11:02:45.364992","MEAN_ANOMALY":"254.7511","MEAN_MOTION":"15.06387390","OBJECT_ID":"2021-017B","RA_OF_ASC_NODE":"157.2929","INCLINATION":"53.0540","TLE_LINE2":"2 47723  53.0540 157.2929 0001794 105.3676 254.7511 15.06387390120871","MEAN_MOTION_DDOT":"0.0000000000000","GP_ID":"230772403","RCS_SIZE":"LARGE","BSTAR":"0.00183320000000","ECCENTRICITY":"0.00017940","APOAPSIS":"548.495","EPHEMERIS_TYPE":"0","OBJECT_TYPE":"PAYLOAD","FILE":"3894260","TLE_LINE1":"1 47723U 21017B   23116.46024728  .00027120  00000-0  18332-2 0  9991","OBJECT_NAME":"STARLINK-2107","REV_AT_EPOCH":"12087","NORAD_CAT_ID":"47723"},{"REV_AT_EPOCH":"12089","NORAD_CAT_ID":"47724","TLE_LINE1":"1 47724U 21017C   23116.82882629  .00012445  00000-0  85354-3 0  9997","OBJECT_NAME":"STARLINK-2116","APOAPSIS":"548.245","ECCENTRICITY":"0.00013680","EPHEMERIS_TYPE":"0","OBJECT_TYPE":"PAYLOAD","FILE":"3894261","BSTAR":"0.00085354000000","MEAN_MOTION_DDOT":"0.0000000000000","GP_ID":"230797677","RCS_SIZE":"LARGE","RA_OF_ASC_NODE":"155.6469","INCLINATION":"53.0510","TLE_LINE2":"2 47724  53.0510 155.6469 0001368  76.5387 283.5754 15.06372490120891","OBJECT_ID":"2021-017C","EPOCH":"2023-04-26T19:53:30.591456","MEAN_ANOMALY":"283.5754","MEAN_MOTION":"15.06372490","MEAN_MOTION_DOT":"0.00012445","REF_FRAME":"TEME","CENTER_NAME":"EARTH","COUNTRY_CODE":"US","PERIOD":"95.594","ARG_OF_PERICENTER":"76.5387","DECAY_DATE":null,"SEMIMAJOR_AXIS":"6925.433","CLASSIFICATION_TYPE":"U","ELEMENT_SET_NO":"999","MEAN_ELEMENT_THEORY":"SGP4","TIME_SYSTEM":"UTC","SITE":"AFETR","PERIAPSIS":"546.350","LAUNCH_DATE":"2021-03-04"},{"OBJECT_ID":"2021-017D","MEAN_ANOMALY":"267.0579","MEAN_MOTION":"15.06405401","EPOCH":"2023-04-26T17:31:32.558880","MEAN_MOTION_DOT":"0.00022130","REF_FRAME":"TEME","PERIOD":"95.592","COUNTRY_CODE":"US","CENTER_NAME":"EARTH","CLASSIFICATION_TYPE":"U","ARG_OF_PERICENTER":"93.0633","DECAY_DATE":null,"SEMIMAJOR_AXIS":"6925.332","MEAN_ELEMENT_THEORY":"SGP4","ELEMENT_SET_NO":"999","TIME_SYSTEM":"UTC","LAUNCH_DATE":"2021-03-04","SITE":"AFETR","PERIAPSIS":"545.848","REV_AT_EPOCH":"11991","NORAD_CAT_ID":"47725","OBJECT_NAME":"STARLINK-2125","TLE_LINE1":"1 47725U 21017D   23116.73023795  .00022130  00000-0  14997-2 0  9995","FILE":"3894261","OBJECT_TYPE":"PAYLOAD","ECCENTRICITY":"0.00019480","APOAPSIS":"548.546","EPHEMERIS_TYPE":"0","BSTAR":"0.00149970000000","GP_ID":"230798928","RCS_SIZE":"LARGE","MEAN_MOTION_DDOT":"0.0000000000000","INCLINATION":"53.0556","TLE_LINE2":"2 47725  53.0556 226.0958 0001948  93.0633 267.0579 15.06405401119912","RA_OF_ASC_NODE":"226.0958"},{"BSTAR":"0.00154470000000","RCS_SIZE":"MEDIUM","GP_ID":"230799179","MEAN_MOTION_DDOT":"0.0000000000000","TLE_LINE2":"2 47726  53.0527 225.8553 0001562  85.8445 274.2723 15.06411006119910","INCLINATION":"53.0527","RA_OF_ASC_NODE":"225.8553","NORAD_CAT_ID":"47726","REV_AT_EPOCH":"11991","OBJECT_NAME":"STARLINK-2126","TLE_LINE1":"1 47726U 21017E   23116.78183394  .00022809  00000-0  15447-2 0  9997","OBJECT_TYPE":"PAYLOAD","FILE":"3894261","EPHEMERIS_TYPE":"0","APOAPSIS":"548.262","ECCENTRICITY":"0.00015620","CLASSIFICATION_TYPE":"U","SEMIMAJOR_AXIS":"6925.315","ARG_OF_PERICENTER":"85.8445","DECAY_DATE":null,"MEAN_ELEMENT_THEORY":"SGP4","ELEMENT_SET_NO":"999","TIME_SYSTEM":"UTC","LAUNCH_DATE":"2021-03-04","PERIAPSIS":"546.098","SITE":"AFETR","OBJECT_ID":"2021-017E","MEAN_MOTION":"15.06411006","MEAN_ANOMALY":"274.2723","EPOCH":"2023-04-26T18:45:50.452416","REF_FRAME":"TEME","MEAN_MOTION_DOT":"0.00022809","PERIOD":"95.591","COUNTRY_CODE":"US","CENTER_NAME":"EARTH"},{"OBJECT_ID":"2021-017F","EPOCH":"2023-04-26T19:11:00.104928","MEAN_ANOMALY":"268.7309","MEAN_MOTION":"15.06387464","MEAN_MOTION_DOT":"0.00007608","REF_FRAME":"TEME","CENTER_NAME":"EARTH","PERIOD":"95.593","COUNTRY_CODE":"US","ARG_OF_PERICENTER":"91.3814","DECAY_DATE":null,"SEMIMAJOR_AXIS":"6925.387","CLASSIFICATION_TYPE":"U","ELEMENT_SET_NO":"999","MEAN_ELEMENT_THEORY":"SGP4","TIME_SYSTEM":"UTC","SITE":"AFETR","PERIAPSIS":"546.443","LAUNCH_DATE":"2021-03-04","REV_AT_EPOCH":"12107","NORAD_CAT_ID":"47727","TLE_LINE1":"1 47727U 21017F   23116.79930677  .00007608  00000-0  52924-3 0  9995","OBJECT_NAME":"STARLINK-2129","ECCENTRICITY":"0.00011680","APOAPSIS":"548.061","EPHEMERIS_TYPE":"0","OBJECT_TYPE":"PAYLOAD","FILE":"3894261","BSTAR":"0.00052924000000","MEAN_MOTION_DDOT":"0.0000000000000","GP_ID":"230797927","RCS_SIZE":"LARGE","RA_OF_ASC_NODE":"145.7783","INCLINATION":"53.0512","TLE_LINE2":"2 47727  53.0512 145.7783 0001168  91.3814 268.7309 15.06387464121072"},{"NORAD_CAT_ID":"47728","REV_AT_EPOCH":"11993","OBJECT_NAME":"STARLINK-2131","TLE_LINE1":"1 47728U 21017G   23116.49064727  .00027726  00000-0  18750-2 0  9998","OBJECT_TYPE":"PAYLOAD","FILE":"3894260","EPHEMERIS_TYPE":"0","ECCENTRICITY":"0.00021470","APOAPSIS":"548.829","BSTAR":"0.00187500000000","RCS_SIZE":"LARGE","GP_ID":"230770672","MEAN_MOTION_DDOT":"0.0000000000000","TLE_LINE2":"2 47728  53.0537 227.1675 0002147 122.3777 237.7419 15.06358081119939","INCLINATION":"53.0537","RA_OF_ASC_NODE":"227.1675","OBJECT_ID":"2021-017G","MEAN_MOTION":"15.06358081","MEAN_ANOMALY":"237.7419","EPOCH":"2023-04-26T11:46:31.924128","REF_FRAME":"TEME","MEAN_MOTION_DOT":"0.00027726","COUNTRY_CODE":"US","PERIOD":"95.595","CENTER_NAME":"EARTH","CLASSIFICATION_TYPE":"U","SEMIMAJOR_AXIS":"6925.477","ARG_OF_PERICENTER":"122.3777","DECAY_DATE":null,"MEAN_ELEMENT_THEORY":"SGP4","ELEMENT_SET_NO":"999","TIME_SYSTEM":"UTC","LAUNCH_DATE":"2021-03-04","PERIAPSIS":"545.855","SITE":"AFETR"},{"REV_AT_EPOCH":"12069","NORAD_CAT_ID":"47729","APOAPSIS":"548.294","ECCENTRICITY":"0.00014940","EPHEMERIS_TYPE":"0","FILE":"3894261","OBJECT_TYPE":"PAYLOAD","TLE_LINE1":"1 47729U 21017H   23116.85143276  .00015822  00000-0  10791-2 0  9997","OBJECT_NAME":"STARLINK-2132","MEAN_MOTION_DDOT":"0.0000000000000","GP_ID":"230798429","RCS_SIZE":"LARGE","BSTAR":"0.00107910000000","RA_OF_ASC_NODE":"170.7496","INCLINATION":"53.0519","TLE_LINE2":"2 47729  53.0519 170.7496 0001494  75.7782 284.3372 15.06384900120695","EPOCH":"2023-04-26T20:26:03.790464","MEAN_ANOMALY":"284.3372","MEAN_MOTION":"15.06384900","OBJECT_ID":"2021-017H","CENTER_NAME":"EARTH","PERIOD":"95.593","COUNTRY_CODE":"US","MEAN_MOTION_DOT":"0.00015822","REF_FRAME":"TEME","ELEMENT_SET_NO":"999","MEAN_ELEMENT_THEORY":"SGP4","DECAY_DATE":null,"ARG_OF_PERICENTER":"75.7782","SEMIMAJOR_AXIS":"6925.395","CLASSIFICATION_TYPE":"U","SITE":"AFETR","PERIAPSIS":"546.225","LAUNCH_DATE":"2021-03-04","TIME_SYSTEM":"UTC"}];
